{"type": "FeatureCollection", "features": [ {"type": "Feature", "properties": {"norad_id": 29769, "name": "FENGYUN 1C DEB", "group": "fengyun-1c-debris", "lat": -52.03924443523321, "lon": -146.86471094364447, "alt_km": 871.4034759282204, "timestamp": "2025-12-13T16:48:32.981477+00:00", "meta": {"OBJECT_NAME": "FENGYUN 1C DEB", "OBJECT_ID": "1999-025BK", "EPOCH": "2025-12-10T14:40:10.559712", "MEAN_MOTION": 14.13511382, "ECCENTRICITY": 0.0093919, "INCLINATION": 99.1049, "RA_OF_ASC_NODE": 41.8532, "ARG_OF_PERICENTER": 136.3981, "MEAN_ANOMALY": 224.4662, "EPHEMERIS_TYPE": 0, "CLASSIFICATION_TYPE": "U", "NORAD_CAT_ID": 29769, "ELEMENT_SET_NO": 999, "REV_AT_EPOCH": 96651, "BSTAR": 0.0020798, "MEAN_MOTION_DOT": 4.04e-05, "MEAN_MOTION_DDOT": 0}, "tle": {"line1": "1 29769U 99025BK  25344.61123333  .00004040  00000+0  20798-2 0  9993", "line2": "2 29769  99.1049  41.8532 0093919 136.3981 224.4662 14.13511382966514"}}, "geometry": {"type": "Point", "coordinates": [-146.86471094364447, -52.03924443523321]}}, {"type": "Feature", "properties": {"norad_id": 29770, "name": "FENGYUN 1C DEB", "group": "fengyun-1c-debris", "lat": 40.97409432410141, "lon": 55.497113959734676, "alt_km": 852.3465935265685, "timestamp": "2025-12-13T16:48:32.981488+00:00", "meta": {"OBJECT_NAME": "FENGYUN 1C DEB", "OBJECT_ID": "1999-025BL", "EPOCH": "2025-12-11T16:18:23.937408", "MEAN_MOTION": 14.20105451, "ECCENTRICITY": 0.00626785, "INCLINATION": 98.8463, "RA_OF_ASC_NODE": 61.2503, "ARG_OF_PERICENTER": 274.3037, "MEAN_ANOMALY": 240.7519, "EPHEMERIS_TYPE": 0, "CLASSIFICATION_TYPE": "U", "NORAD_CAT_ID": 29770, "ELEMENT_SET_NO": 999, "REV_AT_EPOCH": 97071, "BSTAR": 0.0023206891, "MEAN_MOTION_DOT": 5.002e-05, "MEAN_MOTION_DDOT": 0}, "tle": {"line1": "1 29770U 99025BL  25345.67944372  .00005002  00000+0  23207-2 0  9993", "line2": "2 29770  98.8463  61.2503 0062678 274.3037 240.7519 14.20105451970712"}}, "geometry": {"type": "Point", "coordinates": [55.497113959734676, 40.97409432410141]}}, {"type": "Feature", "properties": {"norad_id": 29772, "name": "FENGYUN 1C DEB", "group": "fengyun-1c-debris", "lat": -78.15513676794536, "lon": -27.887451880653543, "alt_km": 799.4850623496168, "timestamp": "2025-12-13T16:48:32.981498+00:00", "meta": {"OBJECT_NAME": "FENGYUN 1C DEB", "OBJECT_ID": "1999-025BN", "EPOCH": "2025-12-10T07:59:03.938208", "MEAN_MOTION": 14.0319606, "ECCENTRICITY": 0.0138223, "INCLINATION": 98.3886, "RA_OF_ASC_NODE": 193.7194, "ARG_OF_PERICENTER": 297.041, "MEAN_ANOMALY": 242.7077, "EPHEMERIS_TYPE": 0, "CLASSIFICATION_TYPE": "U", "NORAD_CAT_ID": 29772, "ELEMENT_SET_NO": 999, "REV_AT_EPOCH": 96221, "BSTAR": 0.0016568, "MEAN_MOTION_DOT": 2.769e-05, "MEAN_MOTION_DDOT": 0}, "tle": {"line1": "1 29772U 99025BN  25344.33268447  .00002769  00000+0  16568-2 0  9998", "line2": "2 29772  98.3886 193.7194 0138223 297.0410 242.7077 14.03196060962216"}}, "geometry": {"type": "Point", "coordinates": [-27.887451880653543, -78.15513676794536]}}, {"type": "Feature", "properties": {"norad_id": 29773, "name": "FENGYUN 1C DEB", "group": "fengyun-1c-debris", "lat": 33.61488379854062, "lon": 135.29037216903163, "alt_km": 806.8785341384364, "timestamp": "2025-12-13T16:48:32.981508+00:00", "meta": {"OBJECT_NAME": "FENGYUN 1C DEB", "OBJECT_ID": "1999-025BP", "EPOCH": "2025-12-12T17:10:26.919840", "MEAN_MOTION": 14.27570263, "ECCENTRICITY": 0.0046365, "INCLINATION": 98.9875, "RA_OF_ASC_NODE": 140.3173, "ARG_OF_PERICENTER": 290.75, "MEAN_ANOMALY": 84.668, "EPHEMERIS_TYPE": 0, "CLASSIFICATION_TYPE": "U", "NORAD_CAT_ID": 29773, "ELEMENT_SET_NO": 999, "REV_AT_EPOCH": 98197, "BSTAR": 0.00057918766, "MEAN_MOTION_DOT": 1.394e-05, "MEAN_MOTION_DDOT": 0}, "tle": {"line1": "1 29773U 99025BP  25346.71558935  .00001394  00000+0  57919-3 0  9996", "line2": "2 29773  98.9875 140.3173 0046365 290.7500  84.6680 14.27570263981975"}}, "geometry": {"type": "Point", "coordinates": [135.29037216903163, 33.61488379854062]}}, {"type": "Feature", "properties": {"norad_id": 29774, "name": "FENGYUN 1C DEB", "group": "fengyun-1c-debris", "lat": -16.654710837515108, "lon": -69.20124786550745, "alt_km": 847.8426504304534, "timestamp": "2025-12-13T16:48:32.981519+00:00", "meta": {"OBJECT_NAME": "FENGYUN 1C DEB", "OBJECT_ID": "1999-025BQ", "EPOCH": "2025-12-12T19:12:04.995648", "MEAN_MOTION": 14.22732593, "ECCENTRICITY": 0.00510928, "INCLINATION": 99.076, "RA_OF_ASC_NODE": 287.1308, "ARG_OF_PERICENTER": 123.0924, "MEAN_ANOMALY": 291.8113, "EPHEMERIS_TYPE": 0, "CLASSIFICATION_TYPE": "U", "NORAD_CAT_ID": 29774, "ELEMENT_SET_NO": 999, "REV_AT_EPOCH": 98076, "BSTAR": 0.00027147572, "MEAN_MOTION_DOT": 5.7e-06, "MEAN_MOTION_DDOT": 0}, "tle": {"line1": "1 29774U 99025BQ  25346.80005782  .00000570  00000+0  27148-3 0  9990", "line2": "2 29774  99.0760 287.1308 0051092 123.0924 291.8113 14.22732593980762"}}, "geometry": {"type": "Point", "coordinates": [-69.20124786550745, -16.654710837515108]}}, {"type": "Feature", "properties": {"norad_id": 29776, "name": "FENGYUN 1C DEB", "group": "fengyun-1c-debris", "lat": 1.248370552493774, "lon": -165.3812311426198, "alt_km": 869.5431377620016, "timestamp": "2025-12-13T16:48:32.981534+00:00", "meta": {"OBJECT_NAME": "FENGYUN 1C DEB", "OBJECT_ID": "1999-025BS", "EPOCH": "2025-12-13T00:54:50.339232", "MEAN_MOTION": 14.07775019, "ECCENTRICITY": 0.00228029, "INCLINATION": 98.7712, "RA_OF_ASC_NODE": 13.7828, "ARG_OF_PERICENTER": 269.9851, "MEAN_ANOMALY": 154.2367, "EPHEMERIS_TYPE": 0, "CLASSIFICATION_TYPE": "U", "NORAD_CAT_ID": 29776, "ELEMENT_SET_NO": 999, "REV_AT_EPOCH": 97084, "BSTAR": 0.00023595115, "MEAN_MOTION_DOT": 3.57e-06, "MEAN_MOTION_DDOT": 0}, "tle": {"line1": "1 29776U 99025BS  25347.03808263  .00000357  00000+0  23595-3 0  9998", "line2": "2 29776  98.7712  13.7828 0022802 269.9851 154.2367 14.07775019970847"}}, "geometry": {"type": "Point", "coordinates": [-165.3812311426198, 1.248370552493774]}}, {"type": "Feature", "properties": {"norad_id": 29777, "name": "FENGYUN 1C DEB", "group": "fengyun-1c-debris", "lat": 9.80587486392582, "lon": -133.8162325864966, "alt_km": 868.5994348601316, "timestamp": "2025-12-13T16:48:32.981558+00:00", "meta": {"OBJECT_NAME": "FENGYUN 1C DEB", "OBJECT_ID": "1999-025BT", "EPOCH": "2025-12-12T21:51:30.996288", "MEAN_MOTION": 13.92104746, "ECCENTRICITY": 0.0092732, "INCLINATION": 99.2837, "RA_OF_ASC_NODE": 43.7733, "ARG_OF_PERICENTER": 209.2757, "MEAN_ANOMALY": 326.2732, "EPHEMERIS_TYPE": 0, "CLASSIFICATION_TYPE": "U", "NORAD_CAT_ID": 29777, "ELEMENT_SET_NO": 999, "REV_AT_EPOCH": 96043, "BSTAR": 0.00029195408, "MEAN_MOTION_DOT": 3.41e-06, "MEAN_MOTION_DDOT": 0}, "tle": {"line1": "1 29777U 99025BT  25346.91077542  .00000341  00000+0  29195-3 0  9998", "line2": "2 29777  99.2837  43.7733 0092732 209.2757 326.2732 13.92104746960438"}}, "geometry": {"type": "Point", "coordinates": [-133.8162325864966, 9.80587486392582]}}, {"type": "Feature", "properties": {"norad_id": 29779, "name": "FENGYUN 1C DEB", "group": "fengyun-1c-debris", "lat": -24.6102832173479, "lon": 174.8974965848677, "alt_km": 819.6170814219568, "timestamp": "2025-12-13T16:48:32.981574+00:00", "meta": {"OBJECT_NAME": "FENGYUN 1C DEB", "OBJECT_ID": "1999-025BV", "EPOCH": "2025-12-12T14:21:44.857440", "MEAN_MOTION": 14.13442428, "ECCENTRICITY": 0.00634883, "INCLINATION": 98.6773, "RA_OF_ASC_NODE": 357.8398, "ARG_OF_PERICENTER": 164.571, "MEAN_ANOMALY": 195.7417, "EPHEMERIS_TYPE": 0, "CLASSIFICATION_TYPE": "U", "NORAD_CAT_ID": 29779, "ELEMENT_SET_NO": 999, "REV_AT_EPOCH": 97410, "BSTAR": 0.00034613976, "MEAN_MOTION_DOT": 6.21e-06, "MEAN_MOTION_DDOT": 0}, "tle": {"line1": "1 29779U 99025BV  25346.59843585  .00000621  00000+0  34614-3 0  9995", "line2": "2 29779  98.6773 357.8398 0063488 164.5710 195.7417 14.13442428974100"}}, "geometry": {"type": "Point", "coordinates": [174.8974965848677, -24.6102832173479]}}, {"type": "Feature", "properties": {"norad_id": 29780, "name": "FENGYUN 1C DEB", "group": "fengyun-1c-debris", "lat": -3.547740660395038, "lon": -90.74362517868747, "alt_km": 843.3878608285686, "timestamp": "2025-12-13T16:48:32.981586+00:00", "meta": {"OBJECT_NAME": "FENGYUN 1C DEB", "OBJECT_ID": "1999-025BW", "EPOCH": "2025-12-12T00:16:11.656128", "MEAN_MOTION": 14.21032654, "ECCENTRICITY": 0.00404925, "INCLINATION": 99.2771, "RA_OF_ASC_NODE": 266.9031, "ARG_OF_PERICENTER": 130.2254, "MEAN_ANOMALY": 230.2476, "EPHEMERIS_TYPE": 0, "CLASSIFICATION_TYPE": "U", "NORAD_CAT_ID": 29780, "ELEMENT_SET_NO": 999, "REV_AT_EPOCH": 97068, "BSTAR": 0.0026897266, "MEAN_MOTION_DOT": 5.839e-05, "MEAN_MOTION_DDOT": 0}, "tle": {"line1": "1 29780U 99025BW  25346.01124602  .00005839  00000+0  26897-2 0  9995", "line2": "2 29780  99.2771 266.9031 0040492 130.2254 230.2476 14.21032654970688"}}, "geometry": {"type": "Point", "coordinates": [-90.74362517868747, -3.547740660395038]}}, {"type": "Feature", "properties": {"norad_id": 29781, "name": "FENGYUN 1C DEB", "group": "fengyun-1c-debris", "lat": -71.64850831284248, "lon": 133.95675634718413, "alt_km": 876.6024423965464, "timestamp": "2025-12-13T16:48:32.981596+00:00", "meta": {"OBJECT_NAME": "FENGYUN 1C DEB", "OBJECT_ID": "1999-025BX", "EPOCH": "2025-12-12T22:49:26.471712", "MEAN_MOTION": 14.05226496, "ECCENTRICITY": 0.00718866, "INCLINATION": 98.8094, "RA_OF_ASC_NODE": 341.1003, "ARG_OF_PERICENTER": 172.5514, "MEAN_ANOMALY": 251.553, "EPHEMERIS_TYPE": 0, "CLASSIFICATION_TYPE": "U", "NORAD_CAT_ID": 29781, "ELEMENT_SET_NO": 999, "REV_AT_EPOCH": 96646, "BSTAR": 0.00086805812, "MEAN_MOTION_DOT": 1.394e-05, "MEAN_MOTION_DDOT": 0}, "tle": {"line1": "1 29781U 99025BX  25346.95100083  .00001394  00000+0  86806-3 0  9995", "line2": "2 29781  98.8094 341.1003 0071886 172.5514 251.5530 14.05226496966465"}}, "geometry": {"type": "Point", "coordinates": [133.95675634718413, -71.64850831284248]}}]}